start=new Date('2022-03-02T00:00:00.000Z').valueOf();
sats=[{"PERIOD":"95.439","ECCENTRICITY":"0.00018260","REF_FRAME":"TEME","NORAD_CAT_ID":"49749","MEAN_MOTION_DOT":"0.00013781","EPOCH":"2022-03-01T22:00:01.999584","TLE_LINE2":"2 49749  53.1954 262.8113 0001826  65.6268  20.4252 15.08822860  3610","ELEMENT_SET_NO":"999","MEAN_MOTION_DDOT":"0.0000000000000","PERIAPSIS":"538.535","TLE_LINE1":"1 49749U 21115AB  22060.91668981  .00013781  00000-0  88269-3 0  9997","EPHEMERIS_TYPE":"0","COUNTRY_CODE":"US","CLASSIFICATION_TYPE":"U","OBJECT_ID":"2021-115AB","TIME_SYSTEM":"UTC","SEMIMAJOR_AXIS":"6917.933","INCLINATION":"53.1954","REV_AT_EPOCH":"361","MEAN_ELEMENT_THEORY":"SGP4","APOAPSIS":"541.061","RCS_SIZE":"LARGE","DECAY_DATE":null,"GP_ID":"197544564","SITE":"AFETR","MEAN_ANOMALY":"20.4252","OBJECT_TYPE":"PAYLOAD","BSTAR":"0.00088269000000","FILE":"3338635","LAUNCH_DATE":"2021-12-02","RA_OF_ASC_NODE":"262.8113","MEAN_MOTION":"15.08822860","CENTER_NAME":"EARTH","OBJECT_NAME":"STARLINK-3250","ARG_OF_PERICENTER":"65.6268"},{"REF_FRAME":"TEME","PERIOD":"95.438","ECCENTRICITY":"0.00018840","NORAD_CAT_ID":"49750","MEAN_MOTION_DOT":"0.00004650","EPOCH":"2022-03-01T22:00:01.999584","ELEMENT_SET_NO":"999","TLE_LINE2":"2 49750  53.2172 262.6809 0001884  53.7959 292.2605 15.08839481  3623","MEAN_MOTION_DDOT":"0.0000000000000","PERIAPSIS":"538.444","TLE_LINE1":"1 49750U 21115AC  22060.91668981  .00004650  00000-0  31005-3 0  9990","EPHEMERIS_TYPE":"0","COUNTRY_CODE":"US","OBJECT_ID":"2021-115AC","CLASSIFICATION_TYPE":"U","REV_AT_EPOCH":"362","INCLINATION":"53.2172","TIME_SYSTEM":"UTC","SEMIMAJOR_AXIS":"6917.882","MEAN_ELEMENT_THEORY":"SGP4","DECAY_DATE":null,"RCS_SIZE":"LARGE","APOAPSIS":"541.050","OBJECT_TYPE":"PAYLOAD","GP_ID":"197543312","SITE":"AFETR","MEAN_ANOMALY":"292.2605","BSTAR":"0.00031005000000","FILE":"3338635","LAUNCH_DATE":"2021-12-02","RA_OF_ASC_NODE":"262.6809","MEAN_MOTION":"15.08839481","OBJECT_NAME":"STARLINK-3236","CENTER_NAME":"EARTH","ARG_OF_PERICENTER":"53.7959"},{"MEAN_ELEMENT_THEORY":"SGP4","APOAPSIS":"541.057","RCS_SIZE":"LARGE","DECAY_DATE":null,"SITE":"AFETR","MEAN_ANOMALY":"343.4746","GP_ID":"197543562","OBJECT_TYPE":"PAYLOAD","FILE":"3338635","BSTAR":"0.00100410000000","LAUNCH_DATE":"2021-12-02","RA_OF_ASC_NODE":"262.5689","MEAN_MOTION":"15.08819080","ARG_OF_PERICENTER":"62.5826","OBJECT_NAME":"STARLINK-3229","CENTER_NAME":"EARTH","PERIOD":"95.439","ECCENTRICITY":"0.00018040","REF_FRAME":"TEME","NORAD_CAT_ID":"49751","EPOCH":"2022-03-01T22:00:01.999584","MEAN_MOTION_DOT":"0.00015719","TLE_LINE2":"2 49751  53.2375 262.5689 0001804  62.5826 343.4746 15.08819080  3625","ELEMENT_SET_NO":"999","MEAN_MOTION_DDOT":"0.0000000000000","TLE_LINE1":"1 49751U 21115AD  22060.91668981  .00015719  00000-0  10041-2 0  9995","COUNTRY_CODE":"US","EPHEMERIS_TYPE":"0","PERIAPSIS":"538.561","CLASSIFICATION_TYPE":"U","OBJECT_ID":"2021-115AD","SEMIMAJOR_AXIS":"6917.944","TIME_SYSTEM":"UTC","REV_AT_EPOCH":"362","INCLINATION":"53.2375"},{"RA_OF_ASC_NODE":"258.0989","LAUNCH_DATE":"2021-12-02","ARG_OF_PERICENTER":"11.1110","OBJECT_NAME":"STARLINK-3209","CENTER_NAME":"EARTH","MEAN_MOTION":"15.40437799","DECAY_DATE":null,"RCS_SIZE":"LARGE","APOAPSIS":"447.567","MEAN_ELEMENT_THEORY":"SGP4","FILE":"3338635","BSTAR":"0.00086120000000","OBJECT_TYPE":"PAYLOAD","SITE":"AFETR","MEAN_ANOMALY":"67.5136","GP_ID":"197544813","COUNTRY_CODE":"US","TLE_LINE1":"1 49752U 21115AE  22060.91668981  .00035153  00000-0  86120-3 0  9992","EPHEMERIS_TYPE":"0","PERIAPSIS":"442.069","MEAN_MOTION_DDOT":"0.0000000000000","INCLINATION":"53.2157","REV_AT_EPOCH":"365","SEMIMAJOR_AXIS":"6822.953","TIME_SYSTEM":"UTC","OBJECT_ID":"2021-115AE","CLASSIFICATION_TYPE":"U","NORAD_CAT_ID":"49752","REF_FRAME":"TEME","PERIOD":"93.480","ECCENTRICITY":"0.00040290","ELEMENT_SET_NO":"999","TLE_LINE2":"2 49752  53.2157 258.0989 0004029  11.1110  67.5136 15.40437799  3654","EPOCH":"2022-03-01T22:00:01.999584","MEAN_MOTION_DOT":"0.00035153"},{"PERIAPSIS":"538.483","COUNTRY_CODE":"US","TLE_LINE1":"1 49753U 21115AF  22060.91668981  .00013049  00000-0  83652-3 0  9990","EPHEMERIS_TYPE":"0","MEAN_MOTION_DDOT":"0.0000000000000","TIME_SYSTEM":"UTC","SEMIMAJOR_AXIS":"6917.887","REV_AT_EPOCH":"362","INCLINATION":"53.2230","CLASSIFICATION_TYPE":"U","OBJECT_ID":"2021-115AF","NORAD_CAT_ID":"49753","PERIOD":"95.438","ECCENTRICITY":"0.00018340","REF_FRAME":"TEME","TLE_LINE2":"2 49753  53.2230 262.6476 0001834  54.4460 311.5913 15.08837761  3627","ELEMENT_SET_NO":"999","MEAN_MOTION_DOT":"0.00013049","EPOCH":"2022-03-01T22:00:01.999584","RA_OF_ASC_NODE":"262.6476","LAUNCH_DATE":"2021-12-02","OBJECT_NAME":"STARLINK-3200","CENTER_NAME":"EARTH","ARG_OF_PERICENTER":"54.4460","MEAN_MOTION":"15.08837761","APOAPSIS":"541.021","RCS_SIZE":"LARGE","DECAY_DATE":null,"MEAN_ELEMENT_THEORY":"SGP4","BSTAR":"0.00083652000000","FILE":"3338635","GP_ID":"197545064","MEAN_ANOMALY":"311.5913","SITE":"AFETR","OBJECT_TYPE":"PAYLOAD"},{"PERIAPSIS":"452.103","TLE_LINE1":"1 49754U 21115AG  22060.91668981 -.00239864  00000-0 -68574-2 0  9993","COUNTRY_CODE":"US","EPHEMERIS_TYPE":"0","MEAN_MOTION_DDOT":"0.0000000000000","TIME_SYSTEM":"UTC","SEMIMAJOR_AXIS":"6834.949","INCLINATION":"53.2176","REV_AT_EPOCH":"365","CLASSIFICATION_TYPE":"U","OBJECT_ID":"2021-115AG","NORAD_CAT_ID":"49754","PERIOD":"93.727","ECCENTRICITY":"0.00068920","REF_FRAME":"TEME","TLE_LINE2":"2 49754  53.2176 258.2002 0006892 280.6112  94.3938 15.36384297  3657","ELEMENT_SET_NO":"999","MEAN_MOTION_DOT":"-0.00239864","EPOCH":"2022-03-01T22:00:01.999584","RA_OF_ASC_NODE":"258.2002","LAUNCH_DATE":"2021-12-02","OBJECT_NAME":"STARLINK-3193","CENTER_NAME":"EARTH","ARG_OF_PERICENTER":"280.6112","MEAN_MOTION":"15.36384297","APOAPSIS":"461.524","DECAY_DATE":null,"RCS_SIZE":"LARGE","MEAN_ELEMENT_THEORY":"SGP4","BSTAR":"-0.00685740000000","FILE":"3338635","GP_ID":"197543812","MEAN_ANOMALY":"94.3938","SITE":"AFETR","OBJECT_TYPE":"PAYLOAD"},{"MEAN_MOTION":"15.08835132","CENTER_NAME":"EARTH","OBJECT_NAME":"STARLINK-3210","ARG_OF_PERICENTER":"49.6975","LAUNCH_DATE":"2021-12-02","RA_OF_ASC_NODE":"262.6826","GP_ID":"197544062","MEAN_ANOMALY":"276.3639","SITE":"AFETR","OBJECT_TYPE":"PAYLOAD","BSTAR":"0.00091871000000","FILE":"3338635","MEAN_ELEMENT_THEORY":"SGP4","APOAPSIS":"541.237","DECAY_DATE":null,"RCS_SIZE":"LARGE","CLASSIFICATION_TYPE":"U","OBJECT_ID":"2021-115AH","TIME_SYSTEM":"UTC","SEMIMAJOR_AXIS":"6917.895","INCLINATION":"53.2159","REV_AT_EPOCH":"362","MEAN_MOTION_DDOT":"0.0000000000000","PERIAPSIS":"538.284","TLE_LINE1":"1 49755U 21115AH  22060.91668981  .00014362  00000-0  91871-3 0  9993","EPHEMERIS_TYPE":"0","COUNTRY_CODE":"US","MEAN_MOTION_DOT":"0.00014362","EPOCH":"2022-03-01T22:00:01.999584","TLE_LINE2":"2 49755  53.2159 262.6826 0002134  49.6975 276.3639 15.08835132  3622","ELEMENT_SET_NO":"999","ECCENTRICITY":"0.00021340","PERIOD":"95.438","REF_FRAME":"TEME","NORAD_CAT_ID":"49755"},{"RA_OF_ASC_NODE":"258.1060","LAUNCH_DATE":"2021-12-02","ARG_OF_PERICENTER":"11.5191","OBJECT_NAME":"STARLINK-3207","CENTER_NAME":"EARTH","MEAN_MOTION":"15.40467590","RCS_SIZE":"LARGE","DECAY_DATE":null,"APOAPSIS":"447.512","MEAN_ELEMENT_THEORY":"SGP4","FILE":"3338635","BSTAR":"-0.00019686000000","OBJECT_TYPE":"PAYLOAD","MEAN_ANOMALY":"62.8873","SITE":"AFETR","GP_ID":"197544314","COUNTRY_CODE":"US","TLE_LINE1":"1 49756U 21115AJ  22060.91668981 -.00008496  00000-0 -19686-3 0  9991","EPHEMERIS_TYPE":"0","PERIAPSIS":"441.949","MEAN_MOTION_DDOT":"0.0000000000000","REV_AT_EPOCH":"365","INCLINATION":"53.2156","SEMIMAJOR_AXIS":"6822.865","TIME_SYSTEM":"UTC","OBJECT_ID":"2021-115AJ","CLASSIFICATION_TYPE":"U","NORAD_CAT_ID":"49756","REF_FRAME":"TEME","ECCENTRICITY":"0.00040770","PERIOD":"93.478","ELEMENT_SET_NO":"999","TLE_LINE2":"2 49756  53.2156 258.1060 0004077  11.5191  62.8873 15.40467590  3652","EPOCH":"2022-03-01T22:00:01.999584","MEAN_MOTION_DOT":"-0.00008496"},{"NORAD_CAT_ID":"49757","REF_FRAME":"TEME","PERIOD":"93.478","ECCENTRICITY":"0.00037900","ELEMENT_SET_NO":"999","TLE_LINE2":"2 49757  53.2161 258.1036 0003790  13.1253  64.4591 15.40465958  3651","EPOCH":"2022-03-01T22:00:01.999584","MEAN_MOTION_DOT":"-0.00006701","EPHEMERIS_TYPE":"0","TLE_LINE1":"1 49757U 21115AK  22060.91668981 -.00006701  00000-0 -15317-3 0  9996","COUNTRY_CODE":"US","PERIAPSIS":"442.149","MEAN_MOTION_DDOT":"0.0000000000000","INCLINATION":"53.2161","REV_AT_EPOCH":"365","SEMIMAJOR_AXIS":"6822.870","TIME_SYSTEM":"UTC","OBJECT_ID":"2021-115AK","CLASSIFICATION_TYPE":"U","DECAY_DATE":null,"RCS_SIZE":"LARGE","APOAPSIS":"447.321","MEAN_ELEMENT_THEORY":"SGP4","FILE":"3338635","BSTAR":"-0.00015317000000","OBJECT_TYPE":"PAYLOAD","MEAN_ANOMALY":"64.4591","SITE":"AFETR","GP_ID":"197544565","RA_OF_ASC_NODE":"258.1036","LAUNCH_DATE":"2021-12-02","ARG_OF_PERICENTER":"13.1253","OBJECT_NAME":"STARLINK-3197","CENTER_NAME":"EARTH","MEAN_MOTION":"15.40465958"},{"ARG_OF_PERICENTER":"15.7374","CENTER_NAME":"EARTH","OBJECT_NAME":"STARLINK-3194","MEAN_MOTION":"15.40436933","RA_OF_ASC_NODE":"258.1092","LAUNCH_DATE":"2021-12-02","FILE":"3338635","BSTAR":"0.00096659000000","SITE":"AFETR","MEAN_ANOMALY":"56.5782","GP_ID":"197543313","OBJECT_TYPE":"PAYLOAD","APOAPSIS":"447.332","DECAY_DATE":null,"RCS_SIZE":"LARGE","MEAN_ELEMENT_THEORY":"SGP4","SEMIMAJOR_AXIS":"6822.956","TIME_SYSTEM":"UTC","INCLINATION":"53.2155","REV_AT_EPOCH":"365","CLASSIFICATION_TYPE":"U","OBJECT_ID":"2021-115AL","TLE_LINE1":"1 49758U 21115AL  22060.91668981  .00039525  00000-0  96659-3 0  9993","COUNTRY_CODE":"US","EPHEMERIS_TYPE":"0","PERIAPSIS":"442.309","MEAN_MOTION_DDOT":"0.0000000000000","TLE_LINE2":"2 49758  53.2155 258.1092 0003681  15.7374  56.5782 15.40436933  3653","ELEMENT_SET_NO":"999","EPOCH":"2022-03-01T22:00:01.999584","MEAN_MOTION_DOT":"0.00039525","NORAD_CAT_ID":"49758","PERIOD":"93.480","ECCENTRICITY":"0.00036810","REF_FRAME":"TEME"}];
